GPS BIIA-23 (PRN 18)    
1 22877U 93068A   19147.34174674 -.00000062  00000-0  00000+0 0  9998
2 22877  54.6712  69.4074 0151575  79.6013  59.0313  2.00560685187451
GPS BIIR-2  (PRN 13)    
1 24876U 97035A   19147.04515430  .00000028  00000-0  00000+0 0  9994
2 24876  55.4597 199.2944 0033050  72.9869 287.4481  2.00564671160040
GPS BIIR-3  (PRN 11)    
1 25933U 99055A   19147.37859470 -.00000093  00000-0  00000+0 0  9997
2 25933  52.1121  46.7332 0164389 108.4717  59.0501  2.00559610143871
GPS BIIR-4  (PRN 20)    
1 26360U 00025A   19147.33465345  .00000053  00000-0  00000+0 0  9996
2 26360  53.3305 125.3076 0042568 137.6648  44.9027  2.00561351139554
GPS BIIR-5  (PRN 28)    
1 26407U 00040A   19146.87879350 -.00000046  00000-0  00000+0 0  9991
2 26407  56.2739 317.4254 0192352 275.9402 270.8978  2.00560662138224
GPS BIIR-6  (PRN 14)    
1 26605U 00071A   19147.41299612  .00000036  00000-0  00000+0 0  9991
2 26605  55.0342 196.7358 0108629 249.3565 235.1463  2.00559966135835
GPS BIIR-8  (PRN 16)    
1 27663U 03005A   19147.45563554 -.00000046  00000-0  00000+0 0  9991
2 27663  56.3342 317.1757 0106869  32.0628 332.1238  2.00575167119603
GPS BIIR-9  (PRN 21)    
1 27704U 03010A   19147.40246193 -.00000064  00000-0  00000+0 0  9995
2 27704  54.3463  68.8808 0248528 277.4050  12.2527  2.00556716118404
GPS BIIR-10 (PRN 22)    
1 28129U 03058A   19147.23767615  .00000056  00000-0  00000+0 0  9997
2 28129  53.1422 128.1002 0074537 282.6739  76.4857  2.00548845113095
GPS BIIR-11 (PRN 19)    
1 28190U 04009A   19147.20595899 -.00000091  00000-0  00000+0 0  9992
2 28190  56.2640  17.9638 0093791  80.5216 256.8722  2.00568623111276
GPS BIIR-12 (PRN 23)    
1 28361U 04023A   19147.49905480  .00000045  00000-0  00000+0 0  9998
2 28361  54.0487 191.1214 0134209 231.3275 231.6116  2.00574227109369
GPS BIIR-13 (PRN 02)    
1 28474U 04045A   19147.19627139 -.00000064  00000-0  00000+0 0  9998
2 28474  54.7042  68.6329 0191387 260.5065 344.5932  2.00558855106720
GPS BIIRM-1 (PRN 17)    
1 28874U 05038A   19147.13335226 -.00000089  00000-0  00000+0 0  9999
2 28874  56.3880  15.3165 0130558 262.1397  42.7535  2.00555765100129
GPS BIIRM-2 (PRN 31)    
1 29486U 06042A   19147.32847581 -.00000042  00000-0  00000+0 0  9997
2 29486  55.0071 253.8765 0091959 358.9016   9.9789  2.00570091 92849
GPS BIIRM-3 (PRN 12)    
1 29601U 06052A   19147.26346874 -.00000045  00000-0  00000+0 0  9992
2 29601  56.3143 316.0998 0074373  61.3085 299.4368  2.00568012 91752
GPS BIIRM-4 (PRN 15)    
1 32260U 07047A   19147.07620503  .00000044  00000-0  00000+0 0  9993
2 32260  53.1721 186.8466 0111533  43.5934 317.3523  2.00561039 85121
GPS BIIRM-5 (PRN 29)    
1 32384U 07062A   19147.34049442 -.00000088  00000-0  00000+0 0  9993
2 32384  56.4719  15.9467 0008597  99.0674 227.5634  2.00555378 83869
GPS BIIRM-6 (PRN 07)    
1 32711U 08012A   19146.98243522 -.00000042  00000-0  00000+0 0  9997
2 32711  54.7468 253.0853 0128982 219.5924 139.4796  2.00554631 82047
GPS BIIRM-8 (PRN 05)    
1 35752U 09043A   19147.20179321  .00000063  00000-0  00000+0 0  9993
2 35752  54.4245 130.7493 0055013  38.8320 144.4659  2.00561062 71635
GPS BIIF-1  (PRN 25)    
1 36585U 10022A   19147.35789990 -.00000047  00000-0  00000+0 0  9995
2 36585  55.5940 312.4111 0082619  50.4640 348.0102  2.00559774 65889
GPS BIIF-2  (PRN 01)    
1 37753U 11036A   19147.37401177 -.00000055  00000-0  00000+0 0  9998
2 37753  55.9018  72.5637 0087108  39.4002  98.0828  2.00566315 57574
GPS BIIF-3  (PRN 24)    
1 38833U 12053A   19147.17096747 -.00000041  00000-0  00000+0 0  9994
2 38833  53.7815 249.2996 0081776  33.4427 327.0946  2.00558334 48620
GPS BIIF-4  (PRN 27)    
1 39166U 13023A   19146.53179532 -.00000091  00000-0  00000+0 0  9990
2 39166  56.0706  12.1220 0070067  26.5055 333.8968  2.00567813 44158
GPS BIIF-5  (PRN 30)    
1 39533U 14008A   19147.52233923 -.00000043  00000-0  00000+0 0  9994
2 39533  53.9131 254.6778 0040976 193.3521 166.5565  2.00573455 38530
GPS BIIF-6  (PRN 06)    
1 39741U 14026A   19147.30993553 -.00000056  00000-0  00000+0 0  9997
2 39741  55.8815  72.0918 0017504 294.6012  65.2116  2.00573915 36817
GPS BIIF-7  (PRN 09)    
1 40105U 14045A   19147.40170774  .00000044  00000-0  00000+0 0  9993
2 40105  54.5752 191.4182 0009948 103.2045 256.9786  2.00563759 35267
GPS BIIF-8  (PRN 03)    
1 40294U 14068A   19147.26753307  .00000067  00000-0  00000+0 0  9995
2 40294  55.1765 132.2845 0020637  28.3301 331.7792  2.00550871 33488
GPS BIIF-9  (PRN 26)    
1 40534U 15013A   19146.91122686 -.00000049  00000-0  00000+0 0  9995
2 40534  54.5225 310.7929 0037020   6.4082 353.6328  2.00571082 30541
GPS BIIF-10  (PRN 08)   
1 40730U 15033A   19147.56966173 -.00000085  00000-0  00000+0 0  9994
2 40730  55.5956  11.4303 0044658 344.1644  15.7428  2.00555895 28316
GPS BIIF-11  (PRN 10)   
1 41019U 15062A   19147.11908002  .00000066  00000-0  00000+0 0  9993
2 41019  55.1777 132.1053 0046710 208.2753 151.4679  2.00564794 26120
GPS BIIF-12  (PRN 32)   
1 41328U 16007A   19147.21439678  .00000042  00000-0  00000+0 0  9999
2 41328  54.8191 191.8096 0032216 220.1058 139.7275  2.00573159 24185
